FIRST-MOVE              
1 39439U 13066Z   23055.36345284  .00011365  00000+0  12295-2 0  9990
2 39439  97.6695  24.4066 0056900 291.6337  67.8825 14.87238577499443
MOVE-II                 
1 43780U 18099Y   23055.42097261  .00011171  00000+0  87928-3 0  9992
2 43780  97.5894 121.9787 0012850 161.3072 198.8626 15.00919711230804
MOVE-IIB                
1 44398U 19038N   23055.50938320  .00036320  00000+0  12930-2 0  9994
2 44398  97.6569  33.9916 0015715 344.5282  15.5474 15.28746672201388
